OBJECT_NAME,OBJECT_ID,EPOCH,MEAN_MOTION,ECCENTRICITY,INCLINATION,RA_OF_ASC_NODE,ARG_OF_PERICENTER,MEAN_ANOMALY,EPHEMERIS_TYPE,CLASSIFICATION_TYPE,NORAD_CAT_ID,ELEMENT_SET_NO,REV_AT_EPOCH,BSTAR,MEAN_MOTION_DOT,MEAN_MOTION_DDOT
FENGYUN 3D,2017-072A,2026-07-19T06:48:39.660768,14.19745213,.00013254,99.0152,175.2898,6.1132,354.0059,0,U,43010,999,44954,.10980887E-3,.186E-5,0
NOAA 20 (JPSS-1),2017-073A,2026-07-19T06:49:00.538464,14.19516933,.00015343,98.7772,139.4624,120.0913,240.0415,0,U,43013,999,44902,.31028487E-4,.21E-6,0
GOES 17,2018-022A,2026-07-19T05:34:28.242048,1.00270788,.00006526,1.0175,85.2034,66.9788,138.9537,0,U,43226,999,3074,0,-.188E-5,0
SENTINEL-3B,2018-039A,2026-07-19T04:03:14.774400,14.26737055,.00012362,98.6233,267.2398,119.0606,241.0698,0,U,43437,999,42868,.34721791E-4,.4E-6,0
FENGYUN 2H,2018-050A,2026-07-19T01:34:37.412256,1.00266930,.00021772,3.1117,78.7020,132.5877,188.2939,0,U,43491,999,2975,0,-.133E-5,0
METOP-C,2018-087A,2026-07-19T05:38:27.288384,14.21503511,.0002114,98.6626,259.2500,88.4750,271.6669,0,U,43689,999,39938,.33354977E-4,.3E-6,0
GEO-KOMPSAT-2A,2018-100A,2026-07-19T05:13:49.483776,1.00272797,.00023656,0.0291,152.3690,303.5769,47.7755,0,U,43823,999,2795,0,-.349E-5,0
METEOR-M2 2,2019-038A,2026-07-19T06:38:37.926240,14.24374049,.00004712,98.9166,188.0390,355.5966,4.5208,0,U,44387,999,36586,.80610104E-4,.14E-5,0
ARKTIKA-M 1,2021-016A,2026-07-14T09:46:38.558208,2.00611590,.7297332,63.2662,53.6722,270.0591,14.4994,0,U,47719,999,3933,0,-.301E-5,0
FENGYUN 3E,2021-062A,2026-07-19T06:20:19.891104,14.19907679,.00020685,98.7503,203.3158,31.8988,328.2313,0,U,49008,999,26113,.14520942E-3,.264E-5,0
GOES 18,2022-021A,2026-07-19T05:40:59.063808,1.00271656,.00005708,0.0148,92.7701,56.0639,96.4492,0,U,51850,999,691,0,0,0
NOAA 21 (JPSS-2),2022-150A,2026-07-19T05:53:55.448160,14.19541427,.00029028,98.7059,138.4966,97.3634,262.7872,0,U,54234,999,19109,.21657922E-4,.2E-7,0
METEOSAT-12 (MTG-I1),2022-170C,2026-07-19T06:19:53.031072,1.00268946,.0003993,0.7295,20.4389,81.1995,290.0167,0,U,54743,999,1330,0,-.14E-6,0
TIANMU-1 03,2023-039A,2026-07-19T07:29:18.873600,15.48115616,.00022283,97.5250,15.5623,12.5558,347.5747,0,U,55973,999,18580,.1735365E-3,.9009E-4,0
TIANMU-1 04,2023-039B,2026-07-19T06:55:50.702592,15.48745182,.00026106,97.5191,14.6944,356.6615,3.4617,0,U,55974,999,18581,.17473191E-3,.9274E-4,0
TIANMU-1 05,2023-039C,2026-07-19T07:03:53.015904,15.48039766,.00025993,97.5235,15.1468,35.4336,324.7086,0,U,55975,999,18578,.16149762E-3,.8354E-4,0
TIANMU-1 06,2023-039D,2026-07-19T07:03:42.235776,15.48640971,.00026488,97.5243,15.8151,25.3977,334.7403,0,U,55976,999,18581,.17191416E-3,.909E-4,0
FENGYUN 3G,2023-055A,2026-07-19T06:30:32.643360,15.53907182,.00068915,49.9916,180.5329,75.1651,285.0080,0,U,56232,999,18499,.2295486E-3,.1466E-3,0
METEOR-M2 3,2023-091A,2026-07-19T06:41:08.448864,14.24049141,.00051105,98.6065,254.5972,81.2287,278.9471,0,U,57166,999,15908,.7724573E-5,-.25E-6,0
TIANMU-1 07,2023-101A,2026-07-19T06:40:24.174048,15.30142343,.00034609,97.2573,250.2134,56.2448,303.9122,0,U,57399,999,16655,.11158134E-3,.318E-4,0
TIANMU-1 08,2023-101B,2026-07-19T07:26:24.907200,15.30145879,.00042049,97.2561,250.0106,35.4055,324.7464,0,U,57400,999,16655,.11041802E-3,.3147E-4,0
TIANMU-1 09,2023-101C,2026-07-19T07:01:25.957056,15.30188205,.00040512,97.2519,249.3932,55.2936,304.8687,0,U,57401,999,16655,.11702345E-3,.3344E-4,0
TIANMU-1 10,2023-101D,2026-07-19T07:49:49.951776,15.30162042,.00052805,97.2599,250.5093,43.0793,317.0860,0,U,57402,999,16655,.11783944E-3,.3365E-4,0
FENGYUN 3F,2023-111A,2026-07-19T07:37:31.579968,14.19943863,.00011957,98.6822,269.7254,75.4578,284.6731,0,U,57490,999,15342,.23783125E-4,.7E-7,0
ARKTIKA-M 2,2023-198A,2026-07-15T04:12:00.091584,2.00608092,.69107365,63.2178,151.2342,267.3397,18.7345,0,U,58584,999,1888,0,.129E-5,0
TIANMU-1 11,2023-205A,2026-07-19T06:59:06.370944,15.27286800,.00069654,97.3443,221.3495,243.6778,116.3746,0,U,58645,999,14242,.1042487E-3,.2714E-4,0
TIANMU-1 12,2023-205B,2026-07-18T09:53:22.905024,15.27114343,.00060948,97.3431,220.2298,220.4884,139.5903,0,U,58646,999,14227,.10886909E-3,.2823E-4,0
TIANMU-1 13,2023-205C,2026-07-19T05:33:50.373792,15.27111976,.00062604,97.3460,221.3180,196.3089,163.7950,0,U,58647,999,14239,.11265284E-3,.2923E-4,0
TIANMU-1 14,2023-205D,2026-07-19T06:45:33.202656,15.27156201,.00068601,97.3397,220.5237,203.6119,156.4806,0,U,58648,999,14240,.11115115E-3,.2887E-4,0
TIANMU-1 19,2023-208A,2026-07-19T07:06:06.115104,15.32012147,.00050139,97.4528,316.7743,183.4447,176.6761,0,U,58660,999,14224,.13935506E-3,.4228E-4,0
