FENGYUN 3D              
1 43010U 17072A   26200.28379237  .00000186  00000+0  10981-3 0  9992
2 43010  99.0152 175.2898 0001325   6.1132 354.0059 14.19745213449549
NOAA 20 (JPSS-1)        
1 43013U 17073A   26200.28403401  .00000021  00000+0  31028-4 0  9991
2 43013  98.7772 139.4624 0001534 120.0913 240.0415 14.19516933449028
GOES 17                 
1 43226U 18022A   26200.23227132 -.00000188  00000+0  00000+0 0  9998
2 43226   1.0175  85.2034 0000652  66.9788 138.9537  1.00270788 30745
SENTINEL-3B             
1 43437U 18039A   26200.16892100  .00000040  00000+0  34722-4 0  9994
2 43437  98.6233 267.2398 0001236 119.0606 241.0698 14.26737055428684
FENGYUN 2H              
1 43491U 18050A   26200.06571079 -.00000133  00000+0  00000+0 0  9996
2 43491   3.1117  78.7020 0002177 132.5877 188.2939  1.00266930 29750
METOP-C                 
1 43689U 18087A   26200.23503806  .00000030  00000+0  33355-4 0  9996
2 43689  98.6626 259.2500 0002114  88.4750 271.6669 14.21503511399384
GEO-KOMPSAT-2A          
1 43823U 18100A   26200.21793384 -.00000349  00000+0  00000+0 0  9992
2 43823   0.0291 152.3690 0002365 303.5769  47.7755  1.00272797 27952
METEOR-M2 2             
1 44387U 19038A   26200.27682785  .00000140  00000+0  80610-4 0  9995
2 44387  98.9166 188.0390 0000471 355.5966   4.5208 14.24374049365862
ARKTIKA-M 1             
1 47719U 21016A   26195.40739072 -.00000301  00000+0  00000+0 0  9996
2 47719  63.2662  53.6722 7297332 270.0591  14.4994  2.00611590 39330
FENGYUN 3E              
1 49008U 21062A   26200.26411911  .00000264  00000+0  14521-3 0  9994
2 49008  98.7503 203.3158 0002068  31.8988 328.2313 14.19907679261138
GOES 18                 
1 51850U 22021A   26200.23679472  .00000000  00000+0  00000+0 0  9994
2 51850   0.0148  92.7701 0000570  56.0639  96.4492  1.00271656  6919
NOAA 21 (JPSS-2)        
1 54234U 22150A   26200.24578065  .00000002  00000+0  21658-4 0  9992
2 54234  98.7059 138.4966 0002902  97.3634 262.7872 14.19541427191092
METEOSAT-12 (MTG-I1)    
1 54743U 22170C   26200.26380823 -.00000014  00000+0  00000+0 0  9991
2 54743   0.7295  20.4389 0003993  81.1995 290.0167  1.00268946 13309
TIANMU-1 03             
1 55973U 23039A   26200.31202400  .00009009  00000+0  17354-3 0  9998
2 55973  97.5250  15.5623 0002228  12.5558 347.5747 15.48115616185808
TIANMU-1 04             
1 55974U 23039B   26200.28878128  .00009274  00000+0  17473-3 0  9997
2 55974  97.5191  14.6944 0002610 356.6615   3.4617 15.48745182185812
TIANMU-1 05             
1 55975U 23039C   26200.29436361  .00008354  00000+0  16150-3 0  9997
2 55975  97.5235  15.1468 0002599  35.4336 324.7086 15.48039766185786
TIANMU-1 06             
1 55976U 23039D   26200.29423884  .00009090  00000+0  17191-3 0  9998
2 55976  97.5243  15.8151 0002648  25.3977 334.7403 15.48640971185810
FENGYUN 3G              
1 56232U 23055A   26200.27121115  .00014660  00000+0  22955-3 0  9995
2 56232  49.9916 180.5329 0006891  75.1651 285.0080 15.53907182184990
METEOR-M2 3             
1 57166U 23091A   26200.27857001 -.00000025  00000+0  77246-5 0  9998
2 57166  98.6065 254.5972 0005110  81.2287 278.9471 14.24049141159081
TIANMU-1 07             
1 57399U 23101A   26200.27805757  .00003180  00000+0  11158-3 0  9991
2 57399  97.2573 250.2134 0003460  56.2448 303.9122 15.30142343166556
TIANMU-1 08             
1 57400U 23101B   26200.31001050  .00003147  00000+0  11042-3 0  9998
2 57400  97.2561 250.0106 0004204  35.4055 324.7464 15.30145879166550
TIANMU-1 09             
1 57401U 23101C   26200.29266154  .00003344  00000+0  11702-3 0  9996
2 57401  97.2519 249.3932 0004051  55.2936 304.8687 15.30188205166556
TIANMU-1 10             
1 57402U 23101D   26200.32627259  .00003365  00000+0  11784-3 0  9991
2 57402  97.2599 250.5093 0005280  43.0793 317.0860 15.30162042166558
FENGYUN 3F              
1 57490U 23111A   26200.31772662  .00000007  00000+0  23783-4 0  9990
2 57490  98.6822 269.7254 0001195  75.4578 284.6731 14.19943863153423
ARKTIKA-M 2             
1 58584U 23198A   26196.17500106  .00000129  00000+0  00000+0 0  9997
2 58584  63.2178 151.2342 6910736 267.3397  18.7345  2.00608092 18886
TIANMU-1 11             
1 58645U 23205A   26200.29104596  .00002714  00000+0  10425-3 0  9994
2 58645  97.3443 221.3495 0006965 243.6778 116.3746 15.27286800142429
TIANMU-1 12             
1 58646U 23205B   26199.41207066  .00002823  00000+0  10887-3 0  9995
2 58646  97.3431 220.2298 0006094 220.4884 139.5903 15.27114343142277
TIANMU-1 13             
1 58647U 23205C   26200.23183303  .00002923  00000+0  11265-3 0  9998
2 58647  97.3460 221.3180 0006260 196.3089 163.7950 15.27111976142398
TIANMU-1 14             
1 58648U 23205D   26200.28163429  .00002887  00000+0  11115-3 0  9994
2 58648  97.3397 220.5237 0006860 203.6119 156.4806 15.27156201142405
TIANMU-1 19             
1 58660U 23208A   26200.29590411  .00004228  00000+0  13936-3 0  9991
2 58660  97.4528 316.7743 0005013 183.4447 176.6761 15.32012147142246
